504P/WISE-PANSTARRS,e,8.8053,221.1145,308.5649,3.746033,0.1359398,0.40622106,57.4820,06/06.0/2026,2000,g 14.3,4.0
# From MPC191641
505P/Palomar,e,11.3883,111.9417,143.9375,4.114019,0.1181149,0.31087455,16.4658,06/06.0/2026,2000,g 14.9,4.0
# From MPC191641
506P/WISE-LINEAR,e,13.6594,325.5830,354.7113,5.587762,0.0746186,0.48159331,75.7370,06/06.0/2026,2000,g 12.7,4.0
# From MPC191641
507P/Lemmon,e,17.0713,232.9962,107.7812,6.202942,0.0637981,0.56799110,81.9622,06/06.0/2026,2000,g 12.6,4.0
# From MPC191641
508P/McNaught,e,31.7329,268.8256,338.8626,3.574213,0.1458591,0.56942216,48.0993,06/06.0/2026,2000,g 16.5,4.0
# From MPEC 2026-HH0
509P/Catalina,e,8.5968,275.2071,180.0275,7.069067,0.0524398,0.47759833,4.1232,06/06.0/2026,2000,g 10.0,4.0
# From MPEC 2026-J11
510P/Boattini,e,8.2269,280.6575,86.6892,6.480437,0.0597445,0.24769540,354.3136,06/06.0/2026,2000,g  9.5,4.0
# From MPC194204
511P/PANSTARRS,e,14.7844,271.0288,81.2892,3.010855,0.1886554,0.23726054,62.2140,06/06.0/2026,2000,g 17.1,4.0
# From MPC191641
512P/PANSTARRS,e,12.5693,73.7321,308.7342,5.695981,0.0725022,0.15703604,346.7975,06/06.0/2026,2000,g 10.0,4.0
# From MPC191641
513P/Broughton,e,21.3850,56.9970,304.8873,7.254514,0.0504419,0.55144363,18.0156,06/06.0/2026,2000,g 11.0,4.0
# From MPC194204
514P/Lemmon-PANSTARRS,e,6.5053,321.5980,89.4893,4.551560,0.1014994,0.36038922,19.6746,06/06.0/2026,2000,g 14.0,4.0
# From MPC194204
515P/PANSTARRS,e,21.0570,119.4719,11.4183,4.363220,0.1081418,0.35450716,20.1349,06/06.0/2026,2000,g 14.5,4.0
# From MPC194204
516P/PANSTARRS,e,4.0212,104.6607,72.7159,3.663281,0.1405720,0.31421887,350.2006,06/06.0/2026,2000,g 15.7,4.0
# From MPC107687
1I/`Oumuamua,h,09/09.4886/2017,122.6778,24.5997,241.6845,1.199252,0.255240,2000,23.0,2.0
# From MPEC 2025-R69
2I/Borisov,h,12/09.0572/2019,44.2624,307.8024,209.2911,3.345952,1.997724,2000,11.0,4.0
# From MPEC 2026-G41
3I/ATLAS,h,10/29.4825/2025,175.1129,322.1535,128.0055,6.139884,1.356507,2000,11.8,4.0
